[{"OBJECT_NAME":"STARLINK-31753","OBJECT_ID":"2024-071A","EPOCH":"2026-03-09T03:49:42.020832","MEAN_MOTION":15.27589882,"ECCENTRICITY":0.00022227,"INCLINATION":43.0044,"RA_OF_ASC_NODE":342.8115,"ARG_OF_PERICENTER":258.3159,"MEAN_ANOMALY":101.7443,"EPHEMERIS_TYPE":0,"CLASSIFICATION_TYPE":"U","NORAD_CAT_ID":59484,"ELEMENT_SET_NO":999,"REV_AT_EPOCH":10812,"BSTAR":-4.5806096e-5,"MEAN_MOTION_DOT":-1.523e-5,"MEAN_MOTION_DDOT":0},{"OBJECT_NAME":"OV1-9","OBJECT_ID":"1966-111A","EPOCH":"2026-03-09T00:15:54.647424","MEAN_MOTION":10.39800663,"ECCENTRICITY":0.22726318,"INCLINATION":99.101,"RA_OF_ASC_NODE":280.6949,"ARG_OF_PERICENTER":170.5316,"MEAN_ANOMALY":194.7407,"EPHEMERIS_TYPE":0,"CLASSIFICATION_TYPE":"U","NORAD_CAT_ID":2610,"ELEMENT_SET_NO":999,"REV_AT_EPOCH":22262,"BSTAR":0.0003053363,"MEAN_MOTION_DOT":7.59e-6,"MEAN_MOTION_DDOT":0}]
